STARLINK-1894           
1 46744C 20074F   21350.13662649 -.00007847  00000-0 -52577-3 0  3504
2 46744  53.0538  55.3794 0001501  68.2920   2.5047 15.06404802    17
STARLINK-1898           
1 46745C 20074G   21350.15052063  .00038232  00000-0  85595-3 0  3506
2 46745  53.0558  48.1477 0002709  42.2516  46.3161 15.42831950    13
STARLINK-1905           
1 46746C 20074H   21350.15260419  .00000443  00000-0  29650-4 0  3507
2 46746  53.0559  55.3102 0001420  70.9559   6.5193 15.06408650    14
STARLINK-1908           
1 46747C 20074J   21350.13334154  .00007889  00000-0  52855-3 0  3507
2 46747  53.0542  55.3913 0001277  62.8274  10.1092 15.06392946    10
STARLINK-1910           
1 46748C 20074K   21350.14061631  .00007464  00000-0  49996-3 0  3507
2 46748  53.0553  55.3730 0001587  70.5460   1.8676 15.06400565    19
STARLINK-1911           
1 46749C 20074L   21350.14912255  .00001037  00000-0  69490-4 0  3507
2 46749  53.0559  55.3324 0001287  73.3757   5.2068 15.06409649    17
STARLINK-1920           
1 46751C 20074N   21350.14426491 -.00003049  00000-0 -20423-3 0  3501
2 46751  53.0550  55.3573 0001351  67.5269   4.6926 15.06413392    18
STARLINK-1921           
1 46752C 20074P   21350.12084229  .00006640  00000-0  44487-3 0  3503
2 46752  53.0543  55.4622 0001318  72.1064 173.0267 15.06392883    15
STARLINK-1922           
1 46753C 20074Q   21350.14912646  .00006565  00000-0  43978-3 0  3509
2 46753  53.0544  55.3253 0001145  83.1961 135.3881 15.06399835    19
STARLINK-1923           
1 46754C 20074R   21350.12916744  .00006158  00000-0  41251-3 0  3501
2 46754  53.0540  55.4187 0001394  65.3702   4.9247 15.06402434    11
STARLINK-1924           
1 46755C 20074S   21350.13384522  .00006990  00000-0  46843-3 0  3502
2 46755  53.0537  60.4024 0001467  73.5160 354.6747 15.06387148    18
STARLINK-1925           
1 46756C 20074T   21350.15328272 -.00013894  00000-0 -93070-3 0  3502
2 46756  53.0562  60.3049 0001158  81.5066 137.2814 15.06420883    18
STARLINK-1926           
1 46757C 20074U   21350.12066461  .00009532  00000-0  63872-3 0  3508
2 46757  53.0555  60.4713 0001361  70.1061 171.7027 15.06387109    17
STARLINK-1928           
1 46758C 20074V   21350.14912631  .00005334  00000-0  35734-3 0  3502
2 46758  53.0557  60.3432 0001188  70.0770 181.0113 15.06394449    15
STARLINK-1833           
1 46759C 20074W   21350.14237697 -.00018197  00000-0 -12190-2 0  3508
2 46759  53.0552  70.3520 0001030  78.7017 160.7796 15.06421740    11
STARLINK-1896           
1 46760C 20074X   21350.15417426  .00005139  00000-0  34420-3 0  3502
2 46760  53.0535  70.3077 0001148  71.9454 171.5544 15.06404062    10
STARLINK-1902           
1 46763C 20074AA  21350.15073241  .00009505  00000-0  59583-3 0  3506
2 46763  53.0537  70.1487 0001549  71.0945 170.3433 15.08836888    10
STARLINK-1903           
1 46764C 20074AB  21350.14637131  .00005530  00000-0  37044-3 0  3502
2 46764  53.0537  70.3346 0001213  73.8192 167.3430 15.06400953    10
STARLINK-1906           
1 46765C 20074AC  21350.13472711  .00008099  00000-0  54270-3 0  3506
2 46765  53.0546  70.4062 0001150  81.4299 156.5482 15.06387421    11
STARLINK-1916           
1 46766C 20074AD  21350.12708870  .00007561  00000-0  50666-3 0  3502
2 46766  53.0529  70.4332 0001240  83.3803 153.1408 15.06387851    13
STARLINK-1917           
1 46767C 20074AE  21350.15330758  .00007814  00000-0  52358-3 0  3503
2 46767  53.0540  70.3052 0001161  88.1481 130.6535 15.06391173    15
STARLINK-1918           
1 46768C 20074AF  21350.15069211  .00005069  00000-0  33955-3 0  3509
2 46768  53.0561  70.3260 0001074  64.5673 120.0287 15.06402707    17
STARLINK-1919           
1 46769C 20074AG  21350.14725784  .00065582  00000-0  14770-2 0  3502
2 46769  53.0549  63.2737 0002818 328.5145 124.0650 15.42628478    11
STARLINK-1932           
1 46770C 20074AH  21350.15017456  .00006257  00000-0  41902-3 0  3507
2 46770  53.0545  70.3263 0001400  88.0427 338.7324 15.06411071    10
STARLINK-1936           
1 46772C 20074AK  21350.13525053 -.00017989  00000-0 -12053-2 0  3504
2 46772  53.0549  70.3991 0001101  75.2598 345.5588 15.06418179    13
STARLINK-1945           
1 46775C 20074AN  21350.15261423  .00225141  00000-0  13961-2 0  3505
2 46775  53.0548  52.0224 0002061  23.3659 197.2703 15.76117188    13
STARLINK-1946           
1 46776C 20074AP  21350.15139796  .00006762  00000-0  45310-3 0  3503
2 46776  53.0544  70.3189 0001144  93.9142 334.5115 15.06391228    19
STARLINK-1798           
1 46779C 20074AS  21350.16947479  .00004485  00000-0  30048-3 0  3504
2 46779  53.0550  45.2361 0001183  69.9581  14.0323 15.06398527    15
STARLINK-1832           
1 46780C 20074AT  21350.15802267 -.00011831  00000-0 -79246-3 0  3508
2 46780  53.0553  45.2924 0001396  64.6921  17.1786 15.06420737    17
STARLINK-1834           
1 46781C 20074AU  21350.14043601  .00005159  00000-0  34566-3 0  3507
2 46781  53.0549  55.3749 0001032  77.9168 173.5339 15.06389915    10
STARLINK-1835           
1 46782C 20074AV  21350.15766418  .00002919  00000-0  19562-3 0  3507
2 46782  53.0529  45.2907 0001239  73.5364  66.4223 15.06391687    13
STARLINK-1851           
1 46783C 20074AW  21350.16196887  .00004504  00000-0  30177-3 0  3503
2 46783  53.0565  45.2797 0001250  65.3006  17.9746 15.06395975    11
STARLINK-1882           
1 46784C 20074AX  21350.16581964  .00004661  00000-0  31227-3 0  3509
2 46784  53.0566  45.2491 0001309  66.3232  17.8332 15.06398977    16
STARLINK-1883           
1 46785C 20074AY  21350.16182104  .00004180  00000-0  28002-3 0  3506
2 46785  53.0540  45.2877 0002580  45.4137  97.0561 15.06402880    14
STARLINK-1893           
1 46786C 20074AZ  21350.14430127 -.00015897  00000-0 -10647-2 0  3500
2 46786  53.0557  25.3456 0003174 156.9616   0.4540 15.06423892    16
STARLINK-1899           
1 46787C 20074BA  21350.13698982  .00002965  00000-0  19853-3 0  3504
2 46787  53.0547  25.3781 0004529 114.8259  42.8821 15.06407926    10
STARLINK-1929           
1 46788C 20074BB  21350.15173200  .00001243  00000-0  83255-4 0  3504
2 46788  53.0546  25.3289 0004131 171.2653 106.4422 15.06408365    19
STARLINK-1930           
1 46789C 20074BC  21350.15468259  .00006107  00000-0  40907-3 0  3506
2 46789  53.0537  55.3014 0001086  68.1320 185.7241 15.06401055    18
STARLINK-1931           
1 46790C 20074BD  21350.13335149 -.00002509  00000-0 -16803-3 0  3509
2 46790  53.0557  55.3961 0001204  68.2022 184.8002 15.06413091    13
STARLINK-1933           
1 46791C 20074BE  21350.14808578  .00005699  00000-0  38175-3 0  3509
2 46791  53.0534  55.3378 0001219  71.3004 181.6436 15.06401660    17
STARLINK-1934           
1 46792C 20074BF  21350.15383789  .00003296  00000-0  22081-3 0  3503
2 46792  53.0543  45.3095 0001367  73.5864  65.5811 15.06395858    13
STARLINK-1941           
1 46793C 20074BG  21350.13680221  .00001989  00000-0  13323-3 0  3509
2 46793  53.0568  55.3909 0001350  72.3002 179.4285 15.06407745    18
STARLINK-1942           
1 46794C 20074BH  21350.14391001  .00005367  00000-0  35956-3 0  3506
2 46794  53.0546  55.3618 0001214  72.0040 178.2792 15.06397464    16
STARLINK-1943           
1 46795C 20074BJ  21345.16160926  .00570488  00000-0  16806-2 0  3450
2 46795  53.0486   1.9925 0003484  46.6669 356.2045 15.91337053    14
STARLINK-1944           
1 46796C 20074BK  21350.15418949 -.00011782  00000-0 -78918-3 0  3505
2 46796  53.0554  45.3094 0001387  71.0269  10.0578 15.06420864    13
STARLINK-1947           
1 46797C 20074BL  21350.13669867  .00019689  00000-0  26707-3 0  3502
2 46797  53.0558   0.7120 0002917  55.6172 231.2926 15.57002009    11
STARLINK-1948           
1 46798C 20074BM  21350.14915048  .00008532  00000-0  57160-3 0  3501
2 46798  53.0549  70.3370 0001398  83.5088 157.8516 15.06393136    16
STARLINK-1777           
1 47122C 20088A   21350.15210020  .00004146  00000-0  27776-3 0  3504
2 47122  53.0540  35.3148 0001703  60.3553  84.3644 15.06400443    19
STARLINK-1785           
1 47124C 20088C   21350.16095427  .00002360  00000-0  15806-3 0  3506
2 47124  53.0548  40.2878 0001267  63.1907 207.2038 15.06404706    12
STARLINK-1812           
1 47126C 20088E   21350.16771923  .00002450  00000-0  16416-3 0  3508
2 47126  53.0546  35.2497 0001650  57.4895  32.0137 15.06394992    10
STARLINK-1837           
1 47128C 20088G   21350.16148602 -.00003446  00000-0 -23096-3 0  3502
2 47128  53.0563  15.2699 0002094 313.6617 332.0324 15.06394814    19
STARLINK-1838           
1 47129C 20088H   21350.15467284  .00000337  00000-0  22603-4 0  3500
2 47129  53.0548  25.3064 0001662  60.6066  33.0981 15.06395497    13
STARLINK-1839           
1 47130C 20088J   21350.16129315  .00004634  00000-0  31034-3 0  3504
2 47130  53.0550  45.2695 0001410  61.0209 158.5132 15.06412626    19
STARLINK-1840           
1 47131C 20088K   21350.15501576  .00278031  00000-0  28614-2 0  3500
2 47131  53.0543 335.7136 0001564  45.1519   6.5268 15.63933247    18
STARLINK-1843           
1 47133C 20088M   21350.14686451 -.00002085  00000-0 -13964-3 0  3506
2 47133  53.0408  25.3996 0001675  63.0796  28.2573 15.06407592    11
STARLINK-1844           
1 47134C 20088N   21350.15364376  .00001964  00000-0  13160-3 0  3508
2 47134  53.0545  35.3159 0001558 204.9486  68.1523 15.06402177    10
STARLINK-1845           
1 47135C 20088P   21350.13943939  .00002463  00000-0  16499-3 0  3508
2 47135  53.0570  25.3799 0001654  55.7054  35.3242 15.06403199    17
STARLINK-1846           
1 47136C 20088Q   21350.14811918  .00003337  00000-0  22353-3 0  3508
2 47136  53.0556  35.3332 0001566  53.1253  89.9753 15.06406107    15
STARLINK-1849           
1 47137C 20088R   21350.15556851 -.00010818  00000-0 -72457-3 0  3506
2 47137  53.0544  25.3041 0001587  54.7170 223.8146 15.06421081    10
